{
    "links": {
        "self": "http://www.neowsapp.com/rest/v1/neo/3426810?api_key=iIulBulltgU6a56xZRHN4H3l9WmuAYTsLGpBGhQ2"
    },
    "id": "3426810",
    "neo_reference_id": "3426810",
    "name": "(2008 RT24)",
    "designation": "2008 RT24",
    "nasa_jpl_url": "http://ssd.jpl.nasa.gov/sbdb.cgi?sstr=3426810",
    "absolute_magnitude_h": 24.4,
    "estimated_diameter": {
        "kilometers": {
            "estimated_diameter_min": 0.0350392641,
            "estimated_diameter_max": 0.0783501764
        },
        "meters": {
            "estimated_diameter_min": 35.0392641108,
            "estimated_diameter_max": 78.3501764334
        },
        "miles": {
            "estimated_diameter_min": 0.0217723826,
            "estimated_diameter_max": 0.0486845275
        },
        "feet": {
            "estimated_diameter_min": 114.9582192654,
            "estimated_diameter_max": 257.0543928497
        }
    },
    "is_potentially_hazardous_asteroid": false,
    "close_approach_data": [
        {
            "close_approach_date": "2008-09-22",
            "close_approach_date_full": "2008-Sep-22 20:59",
            "epoch_date_close_approach": 1222117140000,
            "relative_velocity": {
                "kilometers_per_second": "6.133122815",
                "kilometers_per_hour": "22079.2421341673",
                "miles_per_hour": "13719.1824249774"
            },
            "miss_distance": {
                "astronomical": "0.0740062564",
                "lunar": "28.7884337396",
                "kilometers": "11071178.324113868",
                "miles": "6879311.2127046584"
            },
            "orbiting_body": "Earth"
        }
    ],
    "orbital_data": {
        "orbit_id": "10",
        "orbit_determination_date": "2017-04-06 09:03:00",
        "first_observation_date": "2008-09-06",
        "last_observation_date": "2008-09-18",
        "data_arc_in_days": 12,
        "observations_used": 32,
        "orbit_uncertainty": "8",
        "minimum_orbit_intersection": ".0738452",
        "jupiter_tisserand_invariant": "3.927",
        "epoch_osculation": "2454716.5",
        "eccentricity": ".4191478665851935",
        "semi_major_axis": "1.818326815868083",
        "inclination": "6.93747059248011",
        "ascending_node_longitude": "162.011920128954",
        "orbital_period": "895.5840331804251",
        "perihelion_distance": "1.056179010242328",
        "perihelion_argument": "212.6670979391973",
        "aphelion_distance": "2.580474621493838",
        "perihelion_time": "2454746.070023518089",
        "mean_anomaly": "348.1136687657232",
        "mean_motion": ".401972329410069",
        "equinox": "J2000",
        "orbit_class": {
            "orbit_class_type": "AMO",
            "orbit_class_description": "Near-Earth asteroid orbits similar to that of 1221 Amor",
            "orbit_class_range": "1.017 AU < q (perihelion) < 1.3 AU"
        }
    },
    "is_sentry_object": false
}